[{"OBJECT_NAME":"GONETS-M 17","OBJECT_ID":"2020-068A","EPOCH":"2026-03-09T22:55:28.193952","MEAN_MOTION":12.42869183,"ECCENTRICITY":0.00212582,"INCLINATION":82.4966,"RA_OF_ASC_NODE":49.2242,"ARG_OF_PERICENTER":251.7945,"MEAN_ANOMALY":108.0821,"EPHEMERIS_TYPE":0,"CLASSIFICATION_TYPE":"U","NORAD_CAT_ID":46486,"ELEMENT_SET_NO":999,"REV_AT_EPOCH":24683,"BSTAR":-5.963985e-6,"MEAN_MOTION_DOT":9.0e-8,"MEAN_MOTION_DDOT":0},{"OBJECT_NAME":"DELTA 1 DEB","OBJECT_ID":"1973-086DT","EPOCH":"2026-03-09T20:22:20.641728","MEAN_MOTION":12.36005157,"ECCENTRICITY":0.00350216,"INCLINATION":102.1473,"RA_OF_ASC_NODE":36.3479,"ARG_OF_PERICENTER":325.2085,"MEAN_ANOMALY":90.1694,"EPHEMERIS_TYPE":0,"CLASSIFICATION_TYPE":"U","NORAD_CAT_ID":7153,"ELEMENT_SET_NO":999,"REV_AT_EPOCH":35846,"BSTAR":0.000964196,"MEAN_MOTION_DOT":7.7e-7,"MEAN_MOTION_DDOT":0}]
